LEMUR-2-DEMBITZ         
1 42842U 17042T   26068.47492167  .00020231  00000+0  76561-3 0  9991
2 42842  97.3807 250.9241 0006961  17.1421 343.0051 15.26947128473114
STARLINK-36210          
1 67174U 25303M   26068.03496551  .00035797  00000+0  13035-2 0  9997
2 67174  43.0036 314.5291 0002237 258.7936 101.2664 15.27594454 12630
